H1 CPF 01  gfz 2021 04 03 12  5932 terrasarx 
H2 0702601  6201 31698    2021 04 03 12 59 42 2021 04 08 00 00 42   120 1 1  0 0 0
H9
10 0 59311  32382.000000  0   -3920155.797   2978698.470  -4825692.555
10 0 59311  32502.000000  0   -4253694.647   3499867.897  -4144721.969
10 0 59311  32622.000000  0   -4504587.545   3965252.202  -3391118.390
10 0 59311  32742.000000  0   -4669445.999   4365203.719  -2578024.265
10 0 59311  32862.000000  0   -4746536.116   4691158.131  -1719657.621
10 0 59311  32982.000000  0   -4735797.426   4935821.552   -831065.025
10 0 59311  33102.000000  0   -4638829.147   5093336.397     72145.450
10 0 59311  33222.000000  0   -4458840.587   5159420.037    974085.115
10 0 59311  33342.000000  0   -4200570.868   5131472.892   1858872.626
10 0 59311  33462.000000  0   -3870175.429   5008651.640   2710924.272
10 0 59311  33582.000000  0   -3475083.763   4791906.268   3515236.593
10 0 59311  33702.000000  0   -3023833.288   4483981.217   4257656.077
10 0 59311  33822.000000  0   -2525884.051   4089380.858   4925131.919
10 0 59311  33942.000000  0   -1991417.621   3614299.211   5505946.444
10 0 59311  34062.000000  0   -1431125.852   3066516.190   5989918.660
10 0 59311  34182.000000  0    -855994.233   2455263.451   6368577.767
10 0 59311  34302.000000  0    -277085.653   1791063.054   6635304.031
10 0 59311  34422.000000  0     294671.586   1085543.632   6785438.918
10 0 59311  34542.000000  0     848689.858    351234.710   6816361.248
10 0 59311  34662.000000  0    1374917.116   -398655.114   6727529.621
10 0 59311  34782.000000  0    1864018.396  -1150475.011   6520492.306
10 0 59311  34902.000000  0    2307541.240  -1890379.669   6198862.017
10 0 59311  35022.000000  0    2698062.961  -2604584.101   5768258.031
10 0 59311  35142.000000  0    3029317.412  -3279621.934   5236213.366
10 0 59311  35262.000000  0    3296297.848  -3902602.110   4612048.817
10 0 59311  35382.000000  0    3495335.530  -4461459.601   3906715.442
10 0 59311  35502.000000  0    3624151.635  -4945195.512   3132605.384
10 0 59311  35622.000000  0    3681880.505  -5344099.924   2303334.836
10 0 59311  35742.000000  0    3669064.143  -5649953.066   1433502.268
10 0 59311  35862.000000  0    3587617.389  -5856199.055    538426.229
10 0 59311  35982.000000  0    3440764.802  -5958086.911   -366130.738
10 0 59311  36102.000000  0    3232951.898  -5952778.383  -1264248.246
10 0 59311  36222.000000  0    2969729.246  -5839415.153  -2140138.042
10 0 59311  36342.000000  0    2657616.033  -5619146.802  -2978428.333
10 0 59311  36462.000000  0    2303945.601  -5295118.088  -3764439.664
10 0 59311  36582.000000  0    1916696.220  -4872415.653  -4484444.208
10 0 59311  36702.000000  0    1504312.711  -4357977.082  -5125902.183
10 0 59311  36822.000000  0    1075525.028  -3760466.516  -5677673.564
10 0 59311  36942.000000  0     639166.075  -3090119.613  -6130202.529
10 0 59311  37062.000000  0     203992.394  -2358561.625  -6475671.861
10 0 59311  37182.000000  0    -221488.031  -1578602.266  -6708126.734
10 0 59311  37302.000000  0    -629177.599   -764011.240  -6823567.353
10 0 59311  37422.000000  0   -1011538.396     70722.219  -6820010.386
10 0 59311  37542.000000  0   -1361727.989    910641.522  -6697518.222
10 0 59311  37662.000000  0   -1673719.040   1740583.735  -6458197.803
10 0 59311  37782.000000  0   -1942400.663   2545446.395  -6106168.147
10 0 59311  37902.000000  0   -2163661.904   3310457.219  -5647498.503
10 0 59311  38022.000000  0   -2334454.948   4021443.288  -5090113.879
10 0 59311  38142.000000  0   -2452837.625   4665095.080  -4443670.019
10 0 59311  38262.000000  0   -2517994.030   5229220.720  -3719396.018
10 0 59311  38382.000000  0   -2530231.600   5702983.164  -2929907.136
10 0 59311  38502.000000  0   -2490954.909   6077117.168  -2088992.443
10 0 59311  38622.000000  0   -2402616.997   6344121.810  -1211376.469
10 0 59311  38742.000000  0   -2268648.243   6498419.246   -312459.701
10 0 59311  38862.000000  0   -2093365.218   6536479.714    591954.226
10 0 59311  38982.000000  0   -1881860.457   6456908.388   1485945.908
10 0 59311  39102.000000  0   -1639874.239   6260484.418   2353771.905
10 0 59311  39222.000000  0   -1373653.680   5950155.641   3180150.178
10 0 59311  39342.000000  0   -1089803.595   5530990.901   3950535.168
10 0 59311  39462.000000  0    -795132.935   5010091.530   4651378.671
10 0 59311  39582.000000  0    -496498.306   4396461.157   5270371.633
10 0 59311  39702.000000  0    -200649.232   3700839.496   5796656.961
10 0 59311  39822.000000  0      85918.729   2935506.809   6221016.763
10 0 59311  39942.000000  0     357102.211   2114058.955   6536028.229
10 0 59311  40062.000000  0     607316.596   1251161.387   6736187.353
10 0 59311  40182.000000  0     831608.480    362284.088   6817999.252
10 0 59311  40302.000000  0    1025751.954   -536575.310   6780034.627
10 0 59311  40422.000000  0    1186327.465  -1429178.534   6622954.452
10 0 59311  40542.000000  0    1310782.137  -2299339.613   6349499.476
10 0 59311  40662.000000  0    1397470.493  -3131218.698   5964446.042
10 0 59311  40782.000000  0    1445674.522  -3909612.782   5474527.070
10 0 59311  40902.000000  0    1455603.272  -4620236.051   4888318.883
10 0 59311  41022.000000  0    1428372.900  -5249986.471   4216097.837
10 0 59311  41142.000000  0    1365966.577  -5787196.596   3469665.958
10 0 59311  41262.000000  0    1271174.836  -6221859.671   2662144.554
10 0 59311  41382.000000  0    1147517.249  -6545824.491   1807742.875
10 0 59311  41502.000000  0     999147.194  -6752957.589    921505.656
10 0 59311  41622.000000  0     830742.703  -6839267.042     19042.346
10 0 59311  41742.000000  0     647384.438  -6802984.386   -883757.425
10 0 59311  41862.000000  0     454424.473  -6644598.332  -1771014.402
10 0 59311  41982.000000  0     257351.451  -6366842.441  -2627146.648
10 0 59311  42102.000000  0      61654.337  -5974639.657  -3437148.469
10 0 59311  42222.000000  0    -127312.199  -5475004.387  -4186856.823
10 0 59311  42342.000000  0    -304457.364  -4876903.624  -4863198.571
10 0 59311  42462.000000  0    -465075.358  -4191083.349  -5454413.138
10 0 59311  42582.000000  0    -604955.485  -3429864.799  -5950249.203
10 0 59311  42702.000000  0    -720478.700  -2606914.963  -6342132.245
10 0 59311  42822.000000  0    -808699.268  -1736996.502  -6623301.510
10 0 59311  42942.000000  0    -867410.218   -835702.518  -6788915.403
10 0 59311  43062.000000  0    -895191.742     80819.897  -6836126.501
10 0 59311  43182.000000  0    -891441.263    996153.534  -6764124.094
10 0 59311  43302.000000  0    -856385.463   1893897.340  -6574146.264
10 0 59311  43422.000000  0    -791074.260   2757952.761  -6269460.867
10 0 59311  43542.000000  0    -697356.159   3572806.891  -5855316.796
10 0 59311  43662.000000  0    -577835.608   4323809.329  -5338863.015
10 0 59311  43782.000000  0    -435812.575   4997436.419  -4729036.234
10 0 59311  43902.000000  0    -275206.078   5581540.496  -4036417.672
10 0 59311  44022.000000  0    -100462.240   6065577.801  -3273058.680
10 0 59311  44142.000000  0      83551.545   6440809.579  -2452278.218
10 0 59311  44262.000000  0     271664.008   6700472.549  -1588434.557
10 0 59311  44382.000000  0     458526.441   6839913.624   -696674.106
10 0 59311  44502.000000  0     638745.438   6856684.183    207337.911
10 0 59311  44622.000000  0     807018.650   6750590.946   1107699.498
10 0 59311  44742.000000  0     958269.403   6523700.773   1988560.139
10 0 59311  44862.000000  0    1087775.539   6180300.009   2834408.144
10 0 59311  44982.000000  0    1191290.848   5726811.029   3630351.085
10 0 59311  45102.000000  0    1265156.252   5171665.286   4362384.356
10 0 59311  45222.000000  0    1306398.899   4525138.877   5017642.672
10 0 59311  45342.000000  0    1312811.744   3799148.719   5584627.518
10 0 59311  45462.000000  0    1283017.878   3007023.549   6053402.818
10 0 59311  45582.000000  0    1216515.504   2163252.665   6415764.772
10 0 59311  45702.000000  0    1113702.953   1283215.250   6665379.930
10 0 59311  45822.000000  0     975883.932    382896.258   6797889.488
10 0 59311  45942.000000  0     805252.717   -521403.598   6810979.711
10 0 59311  46062.000000  0     604859.283  -1413361.974   6704421.405
10 0 59311  46182.000000  0     378554.693  -2276929.555   6480073.993
10 0 59311  46302.000000  0     130917.447  -3096619.203   6141855.550
10 0 59311  46422.000000  0    -132837.324  -3857785.520   5695676.451
10 0 59311  46542.000000  0    -406963.794  -4546887.078   5149340.521
10 0 59311  46662.000000  0    -685305.304  -5151731.453   4512417.022
10 0 59311  46782.000000  0    -961427.663  -5661700.975   3796080.256
10 0 59311  46902.000000  0   -1228762.282  -6067949.372   3012915.431
10 0 59311  47022.000000  0   -1480755.293  -6363564.259   2176697.825
10 0 59311  47142.000000  0   -1711019.717  -6543694.404   1302149.027
10 0 59311  47262.000000  0   -1913487.985  -6605636.383    404671.588
10 0 59311  47382.000000  0   -2082557.945  -6548877.135   -499930.595
10 0 59311  47502.000000  0   -2213230.170  -6375092.570  -1395739.392
10 0 59311  47622.000000  0   -2301233.389  -6088102.314  -2267010.890
10 0 59311  47742.000000  0   -2343134.971  -5693781.892  -3098459.435
10 0 59311  47862.000000  0   -2336433.283  -5199933.999  -3875531.044
10 0 59311  47982.000000  0   -2279629.531  -4616122.916  -4584659.086
10 0 59311  48102.000000  0   -2172278.041  -3953478.362  -5213497.405
10 0 59311  48222.000000  0   -2015014.627  -3224474.346  -5751128.268
10 0 59311  48342.000000  0   -1809562.701  -2442687.703  -6188243.170
10 0 59311  48462.000000  0   -1558716.526  -1622540.601  -6517293.570
10 0 59311  48582.000000  0   -1266302.893   -779033.443  -6732609.316
10 0 59311  48702.000000  0    -937123.025     72526.824  -6830485.799
10 0 59311  48822.000000  0    -576874.445    916798.764  -6809240.183
99
